BEIDOU-2 IGSO-1 (C06)   
1 36828U 10036A   26073.67984281 -.00000142  00000+0  00000+0 0  9996
2 36828  54.2922 163.8180 0054578 219.4923 137.9589  1.00250102 57149
BEIDOU-2 G4 (C04)       
1 37210U 10057A   26073.88544309 -.00000111  00000+0  00000+0 0  9997
2 37210   3.4112  69.4810 0008097 213.4129   8.3904  1.00272532 56344
BEIDOU-2 IGSO-2 (C07)   
1 37256U 10068A   26069.49439653 -.00000157  00000+0  00000+0 0  9996
2 37256  47.7215 273.0501 0047490 213.2827 326.5355  1.00257833 55804
BEIDOU-2 IGSO-3 (C08)   
1 37384U 11013A   26064.72099782 -.00000170  00000+0  00000+0 0  9990
2 37384  62.2726  41.1265 0035062 190.7769 297.3260  1.00293315 54626
BEIDOU-2 IGSO-4 (C09)   
1 37763U 11038A   26073.76842311 -.00000094  00000+0  00000+0 0  9991
2 37763  54.5890 166.5285 0155368 231.0457 145.5369  1.00264319 53706
BEIDOU-2 IGSO-5 (C10)   
1 37948U 11073A   26073.51594189 -.00000092  00000+0  00000+0 0  9993
2 37948  47.8511 272.7142 0108909 221.0402 319.1616  1.00270407 52186
BEIDOU-2 G5 (C05)       
1 38091U 12008A   26073.93666330  .00000058  00000+0  00000+0 0  9997
2 38091   3.3371  70.2429 0013654 257.2970 240.9360  1.00270126 51420
BEIDOU-2 M3 (C11)       
1 38250U 12018A   26073.14721841 -.00000025  00000+0  00000+0 0  9992
2 38250  55.8387 308.0798 0021028 279.8412  79.9804  1.86230226 94175
BEIDOU-2 M4 (C12)       
1 38251U 12018B   26072.00546832 -.00000031  00000+0  00000+0 0  9999
2 38251  55.7402 307.3399 0012191 287.4004  72.5220  1.86229915 94157
BEIDOU-2 M6 (C14)       
1 38775U 12050B   26073.32648245  .00000019  00000+0  00000+0 0  9998
2 38775  56.4625  66.0292 0014164 342.6932  17.2813  1.86231068 91546
BEIDOU-2 G6 (C02)       
1 38953U 12059A   26073.94168999 -.00000174  00000+0  00000+0 0  9999
2 38953   4.1811  74.5274 0010557 306.6784 214.3066  1.00275802 48960
BEIDOU-3S IGSO-1S (C31) 
1 40549U 15019A   26073.58735553 -.00000137  00000+0  00000+0 0  9997
2 40549  49.3720 296.6012 0035739 190.1845 353.2607  1.00271852 40129
BEIDOU-3S M2S (C58)     
1 40748U 15037A   26073.28328594 -.00000020  00000+0  00000+0 0  9999
2 40748  54.9541 305.3148 0008546 278.5992  81.3621  1.86232289 72351
BEIDOU-3S M1S (C57)     
1 40749U 15037B   26071.89165788 -.00000029  00000+0  00000+0 0  9998
2 40749  54.9520 305.3509 0004583  33.1330 326.9501  1.86254744 72331
BEIDOU-2 IGSO-6 (C13)   
1 41434U 16021A   26073.87235635 -.00000128  00000+0  00000+0 0  9993
2 41434  60.1011  38.9760 0059349 233.2646 310.0546  1.00276688 36530
BEIDOU-2 G7 (C03)       
1 41586U 16037A   26073.94697668 -.00000353  00000+0  00000+0 0  9994
2 41586   1.4858  68.3197 0007633 346.6011 209.0929  1.00275272  5941
BEIDOU-3 M1 (C19)       
1 43001U 17069A   26072.01799936  .00000011  00000+0  00000+0 0  9992
2 43001  56.6089  66.2503 0012510 309.8790  50.0328  1.86231473 56814
